{
  "norad_id": 64542,
  "name": "T1DES 1 (DRAGOON 1)",
  "history": [
    {
      "epoch": "2026-03-28T21:01:17.169888Z",
      "apogee_km": 495.8573701454807,
      "perigee_km": 489.80830571956176,
      "latitude_deg": -6.667494732956557e-05,
      "longitude_deg": 62.64571186147098,
      "height_km": 496.49417896793034,
      "semi_major_axis_km": 6870.969837932521,
      "eccentricity": 0.00044019,
      "inclination_deg": 97.4591,
      "raan_deg": 204.2573,
      "arg_perigee_deg": 100.9446,
      "mean_anomaly_deg": 259.2286,
      "mean_motion_rev_day": 15.24318424
    },
    {
      "epoch": "2026-03-29T04:53:55.720896Z",
      "apogee_km": 495.80690212682475,
      "perigee_km": 489.7728541424476,
      "latitude_deg": 1.0828893009348054e-05,
      "longitude_deg": -55.51173968177702,
      "height_km": 496.4025868412667,
      "semi_major_axis_km": 6870.926878134636,
      "eccentricity": 0.0004391,
      "inclination_deg": 97.4592,
      "raan_deg": 204.584,
      "arg_perigee_deg": 100.0331,
      "mean_anomaly_deg": 260.1402,
      "mean_motion_rev_day": 15.2433272
    },
    {
      "epoch": "2026-03-30T06:06:21.710880Z",
      "apogee_km": 495.724830176101,
      "perigee_km": 489.650746230338,
      "latitude_deg": 1.7859050931081492e-05,
      "longitude_deg": -73.60975521618981,
      "height_km": 496.1596755093456,
      "semi_major_axis_km": 6870.824788203219,
      "eccentricity": 0.00044202,
      "inclination_deg": 97.4597,
      "raan_deg": 205.6295,
      "arg_perigee_deg": 97.2814,
      "mean_anomaly_deg": 262.8926,
      "mean_motion_rev_day": 15.24366694
    },
    {
      "epoch": "2026-03-30T13:58:59.398752Z",
      "apogee_km": 495.6992189696566,
      "perigee_km": 489.61046065704977,
      "latitude_deg": 1.5516944422508227e-05,
      "longitude_deg": 168.23641020742627,
      "height_km": 496.08731812099074,
      "semi_major_axis_km": 6870.791839813352,
      "eccentricity": 0.00044309,
      "inclination_deg": 97.4598,
      "raan_deg": 205.9562,
      "arg_perigee_deg": 96.5173,
      "mean_anomaly_deg": 263.6569,
      "mean_motion_rev_day": 15.24377659
    },
    {
      "epoch": "2026-03-30T21:51:36.879264Z",
      "apogee_km": 495.6692880333876,
      "perigee_km": 489.5724523297031,
      "latitude_deg": -4.581686280131299e-05,
      "longitude_deg": 50.08334967841,
      "height_km": 495.99939507723474,
      "semi_major_axis_km": 6870.757870181545,
      "eccentricity": 0.00044368,
      "inclination_deg": 97.4599,
      "raan_deg": 206.2828,
      "arg_perigee_deg": 95.4893,
      "mean_anomaly_deg": 264.685,
      "mean_motion_rev_day": 15.24388964
    }
  ]
}